{
  "type": "FeatureCollection",
  "features": [
    {
      "type": "Feature",
      "properties": {
        "norad_id": 35905,
        "name": "COSMOS 2251 DEB",
        "group": "cosmos-2251-debris",
        "lat": -13.786119956298354,
        "lon": -160.59506447224476,
        "alt_km": 545.1180332852673,
        "timestamp": "2025-12-16T08:59:43.558501+00:00",
        "meta_object_name": "COSMOS 2251 DEB",
        "meta_object_id": "1993-036AUU",
        "meta_epoch": "2025-12-15T07:25:55.531200",
        "meta_mean_motion": 14.99062217,
        "meta_eccentricity": 0.00907412,
        "meta_inclination": 74.032,
        "meta_ra_of_asc_node": 205.5952,
        "meta_arg_of_pericenter": 285.0687,
        "meta_mean_anomaly": 74.0472,
        "meta_ephemeris_type": 0,
        "meta_classification_type": "U",
        "meta_norad_cat_id": 35905,
        "meta_element_set_no": 999,
        "meta_rev_at_epoch": 88621,
        "meta_bstar": 0.0003271254,
        "meta_mean_motion_dot": 4.283e-05,
        "meta_mean_motion_ddot": 0,
        "tle_line1": "1 35905U 93036AUU 25349.30967050  .00004283  00000+0  32713-3 0  9991",
        "tle_line2": "2 35905  74.0320 205.5952 0090741 285.0687  74.0472 14.99062217886215"
      },
      "geometry": {
        "type": "Point",
        "coordinates": [
          -160.59506447224476,
          -13.786119956298354
        ]
      }
    },
    {
      "type": "Feature",
      "properties": {
        "norad_id": 35959,
        "name": "COSMOS 2251 DEB",
        "group": "cosmos-2251-debris",
        "lat": -11.730045528554115,
        "lon": -57.999024755158885,
        "alt_km": 769.5368857617705,
        "timestamp": "2025-12-16T08:59:43.558511+00:00",
        "meta_object_name": "COSMOS 2251 DEB",
        "meta_object_id": "1993-036AUZ",
        "meta_epoch": "2025-12-15T21:19:58.666080",
        "meta_mean_motion": 14.34138332,
        "meta_eccentricity": 0.002165,
        "meta_inclination": 74.0326,
        "meta_ra_of_asc_node": 306.2984,
        "meta_arg_of_pericenter": 25.8592,
        "meta_mean_anomaly": 334.3636,
        "meta_ephemeris_type": 0,
        "meta_classification_type": "U",
        "meta_norad_cat_id": 35959,
        "meta_element_set_no": 999,
        "meta_rev_at_epoch": 84973,
        "meta_bstar": 0.000121627,
        "meta_mean_motion_dot": 3.15e-06,
        "meta_mean_motion_ddot": 0,
        "tle_line1": "1 35959U 93036AUZ 25349.88887345  .00000315  00000+0  12163-3 0  9990",
        "tle_line2": "2 35959  74.0326 306.2984 0021650  25.8592 334.3636 14.34138332849733"
      },
      "geometry": {
        "type": "Point",
        "coordinates": [
          -57.999024755158885,
          -11.730045528554115
        ]
      }
    },
    {
      "type": "Feature",
      "properties": {
        "norad_id": 35961,
        "name": "COSMOS 2251 DEB",
        "group": "cosmos-2251-debris",
        "lat": -73.26092592771596,
        "lon": 91.26509126374032,
        "alt_km": 978.8866422925021,
        "timestamp": "2025-12-16T08:59:43.558521+00:00",
        "meta_object_name": "COSMOS 2251 DEB",
        "meta_object_id": "1993-036AVB",
        "meta_epoch": "2025-12-13T08:00:02.001600",
        "meta_mean_motion": 14.05391131,
        "meta_eccentricity": 0.01919644,
        "meta_inclination": 73.9252,
        "meta_ra_of_asc_node": 203.1346,
        "meta_arg_of_pericenter": 136.4306,
        "meta_mean_anomaly": 225.2177,
        "meta_ephemeris_type": 0,
        "meta_classification_type": "U",
        "meta_norad_cat_id": 35961,
        "meta_element_set_no": 999,
        "meta_rev_at_epoch": 62690,
        "meta_bstar": 0.0012957736,
        "meta_mean_motion_dot": 2.456e-05,
        "meta_mean_motion_ddot": 0,
        "tle_line1": "1 35961U 93036AVB 25347.33335650  .00002456  00000+0  12958-2 0  9997",
        "tle_line2": "2 35961  73.9252 203.1346 0191964 136.4306 225.2177 14.05391131626903"
      },
      "geometry": {
        "type": "Point",
        "coordinates": [
          91.26509126374032,
          -73.26092592771596
        ]
      }
    },
    {
      "type": "Feature",
      "properties": {
        "norad_id": 35979,
        "name": "COSMOS 2251 DEB",
        "group": "cosmos-2251-debris",
        "lat": -21.54256152696788,
        "lon": -135.22670821723344,
        "alt_km": 613.5057781857613,
        "timestamp": "2025-12-16T08:59:43.558531+00:00",
        "meta_object_name": "COSMOS 2251 DEB",
        "meta_object_id": "1993-036AVV",
        "meta_epoch": "2025-12-14T22:58:43.931424",
        "meta_mean_motion": 14.74677572,
        "meta_eccentricity": 0.0058977,
        "meta_inclination": 74.0101,
        "meta_ra_of_asc_node": 234.0448,
        "meta_arg_of_pericenter": 5.7065,
        "meta_mean_anomaly": 10.8143,
        "meta_ephemeris_type": 0,
        "meta_classification_type": "U",
        "meta_norad_cat_id": 35979,
        "meta_element_set_no": 999,
        "meta_rev_at_epoch": 88666,
        "meta_bstar": 0.00057820557,
        "meta_mean_motion_dot": 3.938e-05,
        "meta_mean_motion_ddot": 0,
        "tle_line1": "1 35979U 93036AVV 25348.95745291  .00003938  00000+0  57821-3 0  9996",
        "tle_line2": "2 35979  74.0101 234.0448 0058977   5.7065  10.8143 14.74677572886663"
      },
      "geometry": {
        "type": "Point",
        "coordinates": [
          -135.22670821723344,
          -21.54256152696788
        ]
      }
    },
    {
      "type": "Feature",
      "properties": {
        "norad_id": 35980,
        "name": "COSMOS 2251 DEB",
        "group": "cosmos-2251-debris",
        "lat": 15.569267833299657,
        "lon": 120.3130670239761,
        "alt_km": 718.3291580259211,
        "timestamp": "2025-12-16T08:59:43.558541+00:00",
        "meta_object_name": "COSMOS 2251 DEB",
        "meta_object_id": "1993-036AVW",
        "meta_epoch": "2025-12-15T01:39:40.666752",
        "meta_mean_motion": 14.5933919,
        "meta_eccentricity": 0.00539648,
        "meta_inclination": 73.9111,
        "meta_ra_of_asc_node": 118.2073,
        "meta_arg_of_pericenter": 252.458,
        "meta_mean_anomaly": 107.0684,
        "meta_ephemeris_type": 0,
        "meta_classification_type": "U",
        "meta_norad_cat_id": 35980,
        "meta_element_set_no": 999,
        "meta_rev_at_epoch": 61520,
        "meta_bstar": 0.00098659578,
        "meta_mean_motion_dot": 4.733e-05,
        "meta_mean_motion_ddot": 0,
        "tle_line1": "1 35980U 93036AVW 25349.06922068  .00004733  00000+0  98660-3 0  9990",
        "tle_line2": "2 35980  73.9111 118.2073 0053964 252.4580 107.0684 14.59339190615208"
      },
      "geometry": {
        "type": "Point",
        "coordinates": [
          120.3130670239761,
          15.569267833299657
        ]
      }
    },
    {
      "type": "Feature",
      "properties": {
        "norad_id": 35982,
        "name": "COSMOS 2251 DEB",
        "group": "cosmos-2251-debris",
        "lat": -15.569757839219772,
        "lon": -24.595224788620513,
        "alt_km": 666.7035673677092,
        "timestamp": "2025-12-16T08:59:43.558551+00:00",
        "meta_object_name": "COSMOS 2251 DEB",
        "meta_object_id": "1993-036AVY",
        "meta_epoch": "2025-12-14T06:11:08.043072",
        "meta_mean_motion": 14.62762672,
        "meta_eccentricity": 0.00641752,
        "meta_inclination": 74.0584,
        "meta_ra_of_asc_node": 344.0235,
        "meta_arg_of_pericenter": 49.8737,
        "meta_mean_anomaly": 310.8028,
        "meta_ephemeris_type": 0,
        "meta_classification_type": "U",
        "meta_norad_cat_id": 35982,
        "meta_element_set_no": 999,
        "meta_rev_at_epoch": 86188,
        "meta_bstar": 0.00070329897,
        "meta_mean_motion_dot": 3.665e-05,
        "meta_mean_motion_ddot": 0,
        "tle_line1": "1 35982U 93036AVY 25348.25773198  .00003665  00000+0  70330-3 0  9997",
        "tle_line2": "2 35982  74.0584 344.0235 0064175  49.8737 310.8028 14.62762672861885"
      },
      "geometry": {
        "type": "Point",
        "coordinates": [
          -24.595224788620513,
          -15.569757839219772
        ]
      }
    },
    {
      "type": "Feature",
      "properties": {
        "norad_id": 35987,
        "name": "COSMOS 2251 DEB",
        "group": "cosmos-2251-debris",
        "lat": 71.70560812665981,
        "lon": 20.093770142027875,
        "alt_km": 708.1147466032417,
        "timestamp": "2025-12-16T08:59:43.558561+00:00",
        "meta_object_name": "COSMOS 2251 DEB",
        "meta_object_id": "1993-036AWD",
        "meta_epoch": "2025-12-14T05:02:56.141664",
        "meta_mean_motion": 14.43139491,
        "meta_eccentricity": 0.00459797,
        "meta_inclination": 73.9997,
        "meta_ra_of_asc_node": 323.9049,
        "meta_arg_of_pericenter": 89.0828,
        "meta_mean_anomaly": 271.5596,
        "meta_ephemeris_type": 0,
        "meta_classification_type": "U",
        "meta_norad_cat_id": 35987,
        "meta_element_set_no": 999,
        "meta_rev_at_epoch": 61086,
        "meta_bstar": 0.001182332,
        "meta_mean_motion_dot": 3.997e-05,
        "meta_mean_motion_ddot": 0,
        "tle_line1": "1 35987U 93036AWD 25348.21037201  .00003997  00000+0  11823-2 0  9995",
        "tle_line2": "2 35987  73.9997 323.9049 0045979  89.0828 271.5596 14.43139491610862"
      },
      "geometry": {
        "type": "Point",
        "coordinates": [
          20.093770142027875,
          71.70560812665981
        ]
      }
    }
  ]
}